{"type": "FeatureCollection", "features": [ {"type": "Feature", "properties": {"norad_id": 35135, "name": "FENGYUN 1C DEB", "group": "fengyun-1c-debris", "lat": -10.665789758399367, "lon": 174.85238773849528, "alt_km": 821.5950767272816, "timestamp": "2025-12-13T16:48:32.997527+00:00", "meta": {"OBJECT_NAME": "FENGYUN 1C DEB", "OBJECT_ID": "1999-025DLP", "EPOCH": "2025-12-10T06:52:44.806944", "MEAN_MOTION": 14.22529436, "ECCENTRICITY": 0.0080993, "INCLINATION": 98.565, "RA_OF_ASC_NODE": 353.1608, "ARG_OF_PERICENTER": 291.6551, "MEAN_ANOMALY": 67.6016, "EPHEMERIS_TYPE": 0, "CLASSIFICATION_TYPE": "U", "NORAD_CAT_ID": 35135, "ELEMENT_SET_NO": 999, "REV_AT_EPOCH": 87789, "BSTAR": 0.00073581, "MEAN_MOTION_DOT": 1.655e-05, "MEAN_MOTION_DDOT": 0}, "tle": {"line1": "1 35135U 99025DLP 25344.28662971  .00001655  00000+0  73581-3 0  9994", "line2": "2 35135  98.5650 353.1608 0080993 291.6551  67.6016 14.22529436877899"}}, "geometry": {"type": "Point", "coordinates": [174.85238773849528, -10.665789758399367]}}, {"type": "Feature", "properties": {"norad_id": 35139, "name": "FENGYUN 1C DEB", "group": "fengyun-1c-debris", "lat": -77.45599085250441, "lon": 35.648161327496396, "alt_km": 781.539272587017, "timestamp": "2025-12-13T16:48:32.997537+00:00", "meta": {"OBJECT_NAME": "FENGYUN 1C DEB", "OBJECT_ID": "1999-025DLT", "EPOCH": "2025-11-29T06:46:18.583392", "MEAN_MOTION": 14.21054019, "ECCENTRICITY": 0.00685814, "INCLINATION": 98.5841, "RA_OF_ASC_NODE": 338.8823, "ARG_OF_PERICENTER": 336.9878, "MEAN_ANOMALY": 22.8231, "EPHEMERIS_TYPE": 0, "CLASSIFICATION_TYPE": "U", "NORAD_CAT_ID": 35139, "ELEMENT_SET_NO": 999, "REV_AT_EPOCH": 63962, "BSTAR": 0.00042081079, "MEAN_MOTION_DOT": 8.92e-06, "MEAN_MOTION_DDOT": 0}, "tle": {"line1": "1 35139U 99025DLT 25333.28215953  .00000892  00000+0  42081-3 0  9993", "line2": "2 35139  98.5841 338.8823 0068581 336.9878  22.8231 14.21054019639626"}}, "geometry": {"type": "Point", "coordinates": [35.648161327496396, -77.45599085250441]}}, {"type": "Feature", "properties": {"norad_id": 35140, "name": "FENGYUN 1C DEB", "group": "fengyun-1c-debris", "lat": 10.359701728993503, "lon": -32.52122753421406, "alt_km": 675.5708631820789, "timestamp": "2025-12-13T16:48:32.997547+00:00", "meta": {"OBJECT_NAME": "FENGYUN 1C DEB", "OBJECT_ID": "1999-025DLU", "EPOCH": "2025-12-10T16:06:55.950624", "MEAN_MOTION": 14.21341225, "ECCENTRICITY": 0.02908031, "INCLINATION": 98.446, "RA_OF_ASC_NODE": 326.133, "ARG_OF_PERICENTER": 332.6918, "MEAN_ANOMALY": 25.9222, "EPHEMERIS_TYPE": 0, "CLASSIFICATION_TYPE": "U", "NORAD_CAT_ID": 35140, "ELEMENT_SET_NO": 999, "REV_AT_EPOCH": 87249, "BSTAR": 0.00040593538, "MEAN_MOTION_DOT": 1.31e-05, "MEAN_MOTION_DDOT": 0}, "tle": {"line1": "1 35140U 99025DLU 25344.67148091  .00001310  00000+0  40594-3 0  9991", "line2": "2 35140  98.4460 326.1330 0290803 332.6918  25.9222 14.21341225872495"}}, "geometry": {"type": "Point", "coordinates": [-32.52122753421406, 10.359701728993503]}}, {"type": "Feature", "properties": {"norad_id": 35142, "name": "FENGYUN 1C DEB", "group": "fengyun-1c-debris", "lat": -14.725781053595641, "lon": 157.43026650851374, "alt_km": 856.0666938622135, "timestamp": "2025-12-13T16:48:32.997558+00:00", "meta": {"OBJECT_NAME": "FENGYUN 1C DEB", "OBJECT_ID": "1999-025DLW", "EPOCH": "2025-12-10T17:57:11.594304", "MEAN_MOTION": 13.90505391, "ECCENTRICITY": 0.01075768, "INCLINATION": 99.0447, "RA_OF_ASC_NODE": 336.9569, "ARG_OF_PERICENTER": 219.5001, "MEAN_ANOMALY": 324.8218, "EPHEMERIS_TYPE": 0, "CLASSIFICATION_TYPE": "U", "NORAD_CAT_ID": 35142, "ELEMENT_SET_NO": 999, "REV_AT_EPOCH": 85661, "BSTAR": 0.00028188701, "MEAN_MOTION_DOT": 3.24e-06, "MEAN_MOTION_DDOT": 0}, "tle": {"line1": "1 35142U 99025DLW 25344.74805086  .00000324  00000+0  28189-3 0  9995", "line2": "2 35142  99.0447 336.9569 0107576 219.5001 324.8218 13.90505391856615"}}, "geometry": {"type": "Point", "coordinates": [157.43026650851374, -14.725781053595641]}}, {"type": "Feature", "properties": {"norad_id": 35144, "name": "FENGYUN 1C DEB", "group": "fengyun-1c-debris", "lat": -26.694259295313916, "lon": 107.51118892904672, "alt_km": 684.392746515292, "timestamp": "2025-12-13T16:48:32.997568+00:00", "meta": {"OBJECT_NAME": "FENGYUN 1C DEB", "OBJECT_ID": "1999-025DLY", "EPOCH": "2025-12-11T13:54:55.730016", "MEAN_MOTION": 14.59153521, "ECCENTRICITY": 0.0026594, "INCLINATION": 98.6992, "RA_OF_ASC_NODE": 100.875, "ARG_OF_PERICENTER": 5.3698, "MEAN_ANOMALY": 354.778, "EPHEMERIS_TYPE": 0, "CLASSIFICATION_TYPE": "U", "NORAD_CAT_ID": 35144, "ELEMENT_SET_NO": 999, "REV_AT_EPOCH": 65196, "BSTAR": 0.0041915394, "MEAN_MOTION_DOT": 0.00019845, "MEAN_MOTION_DDOT": 0}, "tle": {"line1": "1 35144U 99025DLY 25345.57981169  .00019845  00000+0  41915-2 0  9995", "line2": "2 35144  98.6992 100.8750 0026594   5.3698 354.7780 14.59153521651967"}}, "geometry": {"type": "Point", "coordinates": [107.51118892904672, -26.694259295313916]}}, {"type": "Feature", "properties": {"norad_id": 35147, "name": "FENGYUN 1C DEB", "group": "fengyun-1c-debris", "lat": -35.03564335360077, "lon": -125.57692075821616, "alt_km": 635.2868250252932, "timestamp": "2025-12-13T16:48:32.997578+00:00", "meta": {"OBJECT_NAME": "FENGYUN 1C DEB", "OBJECT_ID": "1999-025DMB", "EPOCH": "2025-12-12T04:00:01.085472", "MEAN_MOTION": 14.74258737, "ECCENTRICITY": 0.00274327, "INCLINATION": 99.4864, "RA_OF_ASC_NODE": 59.3629, "ARG_OF_PERICENTER": 200.9205, "MEAN_ANOMALY": 159.0879, "EPHEMERIS_TYPE": 0, "CLASSIFICATION_TYPE": "U", "NORAD_CAT_ID": 35147, "ELEMENT_SET_NO": 999, "REV_AT_EPOCH": 74296, "BSTAR": 0.0038669119, "MEAN_MOTION_DOT": 0.00025751, "MEAN_MOTION_DDOT": 0}, "tle": {"line1": "1 35147U 99025DMB 25346.16667923  .00025751  00000+0  38669-2 0  9998", "line2": "2 35147  99.4864  59.3629 0027432 200.9205 159.0879 14.74258737742967"}}, "geometry": {"type": "Point", "coordinates": [-125.57692075821616, -35.03564335360077]}}, {"type": "Feature", "properties": {"norad_id": 35152, "name": "FENGYUN 1C DEB", "group": "fengyun-1c-debris", "lat": -32.29370739960445, "lon": 176.7025155567411, "alt_km": 881.0330670830308, "timestamp": "2025-12-13T16:48:32.997588+00:00", "meta": {"OBJECT_NAME": "FENGYUN 1C DEB", "OBJECT_ID": "1999-025DMG", "EPOCH": "2025-12-09T06:32:50.767584", "MEAN_MOTION": 13.76426124, "ECCENTRICITY": 0.019481, "INCLINATION": 99.8191, "RA_OF_ASC_NODE": 165.8523, "ARG_OF_PERICENTER": 24.4192, "MEAN_ANOMALY": 336.6036, "EPHEMERIS_TYPE": 0, "CLASSIFICATION_TYPE": "U", "NORAD_CAT_ID": 35152, "ELEMENT_SET_NO": 999, "REV_AT_EPOCH": 62145, "BSTAR": 0.0008876, "MEAN_MOTION_DOT": 9.5e-06, "MEAN_MOTION_DDOT": 0}, "tle": {"line1": "1 35152U 99025DMG 25343.27280981  .00000950  00000+0  88760-3 0  9990", "line2": "2 35152  99.8191 165.8523 0194810  24.4192 336.6036 13.76426124621451"}}, "geometry": {"type": "Point", "coordinates": [176.7025155567411, -32.29370739960445]}}, {"type": "Feature", "properties": {"norad_id": 35153, "name": "FENGYUN 1C DEB", "group": "fengyun-1c-debris", "lat": 13.99685218827638, "lon": 61.83567198029876, "alt_km": 638.7833479495575, "timestamp": "2025-12-13T16:48:32.997598+00:00", "meta": {"OBJECT_NAME": "FENGYUN 1C DEB", "OBJECT_ID": "1999-025DMH", "EPOCH": "2025-12-10T22:53:53.083104", "MEAN_MOTION": 14.7371709, "ECCENTRICITY": 0.0171271, "INCLINATION": 98.902, "RA_OF_ASC_NODE": 236.5834, "ARG_OF_PERICENTER": 88.7296, "MEAN_ANOMALY": 273.3523, "EPHEMERIS_TYPE": 0, "CLASSIFICATION_TYPE": "U", "NORAD_CAT_ID": 35153, "ELEMENT_SET_NO": 999, "REV_AT_EPOCH": 97191, "BSTAR": 0.00051843, "MEAN_MOTION_DOT": 4.214e-05, "MEAN_MOTION_DDOT": 0}, "tle": {"line1": "1 35153U 99025DMH 25344.95408661  .00004214  00000+0  51843-3 0  9993", "line2": "2 35153  98.9020 236.5834 0171271  88.7296 273.3523 14.73717090971918"}}, "geometry": {"type": "Point", "coordinates": [61.83567198029876, 13.99685218827638]}}, {"type": "Feature", "properties": {"norad_id": 35154, "name": "FENGYUN 1C DEB", "group": "fengyun-1c-debris", "lat": -77.9378632264575, "lon": 160.227463635014, "alt_km": 903.544584988218, "timestamp": "2025-12-13T16:48:32.997608+00:00", "meta": {"OBJECT_NAME": "FENGYUN 1C DEB", "OBJECT_ID": "1999-025DMJ", "EPOCH": "2025-12-11T14:25:27.188832", "MEAN_MOTION": 14.18895758, "ECCENTRICITY": 0.01793749, "INCLINATION": 99.4214, "RA_OF_ASC_NODE": 107.0097, "ARG_OF_PERICENTER": 45.6577, "MEAN_ANOMALY": 315.9139, "EPHEMERIS_TYPE": 0, "CLASSIFICATION_TYPE": "U", "NORAD_CAT_ID": 35154, "ELEMENT_SET_NO": 999, "REV_AT_EPOCH": 64561, "BSTAR": 0.00044304667, "MEAN_MOTION_DOT": 1.033e-05, "MEAN_MOTION_DDOT": 0}, "tle": {"line1": "1 35154U 99025DMJ 25345.60100913  .00001033  00000+0  44305-3 0  9997", "line2": "2 35154  99.4214 107.0097 0179374  45.6577 315.9139 14.18895758645617"}}, "geometry": {"type": "Point", "coordinates": [160.227463635014, -77.9378632264575]}}, {"type": "Feature", "properties": {"norad_id": 35155, "name": "FENGYUN 1C DEB", "group": "fengyun-1c-debris", "lat": 40.03378396583505, "lon": -7.888196302134108, "alt_km": 807.9767596699376, "timestamp": "2025-12-13T16:48:32.997618+00:00", "meta": {"OBJECT_NAME": "FENGYUN 1C DEB", "OBJECT_ID": "1999-025DMK", "EPOCH": "2025-12-01T18:40:23.892384", "MEAN_MOTION": 14.19237116, "ECCENTRICITY": 0.00262936, "INCLINATION": 98.5005, "RA_OF_ASC_NODE": 347.8913, "ARG_OF_PERICENTER": 103.4458, "MEAN_ANOMALY": 256.9651, "EPHEMERIS_TYPE": 0, "CLASSIFICATION_TYPE": "U", "NORAD_CAT_ID": 35155, "ELEMENT_SET_NO": 999, "REV_AT_EPOCH": 72558, "BSTAR": 0.00064940785, "MEAN_MOTION_DOT": 1.325e-05, "MEAN_MOTION_DDOT": 0}, "tle": {"line1": "1 35155U 99025DMK 25335.77805431  .00001325  00000+0  64941-3 0  9994", "line2": "2 35155  98.5005 347.8913 0026293 103.4458 256.9651 14.19237116725586"}}, "geometry": {"type": "Point", "coordinates": [-7.888196302134108, 40.03378396583505]}}]}